{"type": "FeatureCollection", "features": [ {"type": "Feature", "properties": {"norad_id": 37834, "name": "INTELSAT 18 (IS-18)", "group": "intelsat", "lat": 0.0010066570628132988, "lon": 128.931107922402, "alt_km": 35792.38275923509, "timestamp": "2025-12-20T14:38:01.626309+00:00", "meta": {"OBJECT_NAME": "INTELSAT 18 (IS-18)", "OBJECT_ID": "2011-056A", "EPOCH": "2025-12-20T03:48:55.213632", "MEAN_MOTION": 1.00272313, "ECCENTRICITY": 0.00016607, "INCLINATION": 0.034, "RA_OF_ASC_NODE": 280.0542, "ARG_OF_PERICENTER": 6.287, "MEAN_ANOMALY": 39.8848, "EPHEMERIS_TYPE": 0, "CLASSIFICATION_TYPE": "U", "NORAD_CAT_ID": 37834, "ELEMENT_SET_NO": 999, "REV_AT_EPOCH": 5201, "BSTAR": 0, "MEAN_MOTION_DOT": 7.7e-07, "MEAN_MOTION_DDOT": 0}, "tle": {"line1": "1 37834U 11056A   25354.15897238  .00000077  00000+0  00000+0 0  9992", "line2": "2 37834   0.0340 280.0542 0001660   6.2870  39.8848  1.00272313 52018"}}, "geometry": {"type": "Point", "coordinates": [128.931107922402, 0.0010066570628132988]}}, {"type": "Feature", "properties": {"norad_id": 38098, "name": "INTELSAT 22 (IS-22)", "group": "intelsat", "lat": -0.0007929378239170799, "lon": 21.052030541172723, "alt_km": 35788.262915626765, "timestamp": "2025-12-20T14:38:01.626322+00:00", "meta": {"OBJECT_NAME": "INTELSAT 22 (IS-22)", "OBJECT_ID": "2012-011A", "EPOCH": "2025-12-20T03:18:05.666976", "MEAN_MOTION": 1.00270553, "ECCENTRICITY": 0.00018117, "INCLINATION": 0.0147, "RA_OF_ASC_NODE": 42.664, "ARG_OF_PERICENTER": 234.5908, "MEAN_ANOMALY": 293.3399, "EPHEMERIS_TYPE": 0, "CLASSIFICATION_TYPE": "U", "NORAD_CAT_ID": 38098, "ELEMENT_SET_NO": 999, "REV_AT_EPOCH": 539, "BSTAR": 0, "MEAN_MOTION_DOT": -3.4e-07, "MEAN_MOTION_DDOT": 0}, "tle": {"line1": "1 38098U 12011A   25354.13756559 -.00000034  00000+0  00000+0 0  9999", "line2": "2 38098   0.0147  42.6640 0001811 234.5908 293.3399  1.00270553  5394"}}, "geometry": {"type": "Point", "coordinates": [21.052030541172723, -0.0007929378239170799]}}, {"type": "Feature", "properties": {"norad_id": 38356, "name": "INTELSAT 19 (IS-19)", "group": "intelsat", "lat": 0.03467072358133437, "lon": 114.92226553496643, "alt_km": 35796.29989091107, "timestamp": "2025-12-20T14:38:01.626334+00:00", "meta": {"OBJECT_NAME": "INTELSAT 19 (IS-19)", "OBJECT_ID": "2012-030A", "EPOCH": "2025-12-20T04:32:51.864288", "MEAN_MOTION": 1.00271267, "ECCENTRICITY": 0.0002734, "INCLINATION": 0.0114, "RA_OF_ASC_NODE": 358.3296, "ARG_OF_PERICENTER": 267.0055, "MEAN_ANOMALY": 57.9081, "EPHEMERIS_TYPE": 0, "CLASSIFICATION_TYPE": "U", "NORAD_CAT_ID": 38356, "ELEMENT_SET_NO": 999, "REV_AT_EPOCH": 4865, "BSTAR": 0, "MEAN_MOTION_DOT": -3.2e-07, "MEAN_MOTION_DDOT": 0}, "tle": {"line1": "1 38356U 12030A   25354.18948917 -.00000032  00000+0  00000+0 0  9991", "line2": "2 38356   0.0114 358.3296 0002734 267.0055  57.9081  1.00271267 48659"}}, "geometry": {"type": "Point", "coordinates": [114.92226553496643, 0.03467072358133437]}}, {"type": "Feature", "properties": {"norad_id": 38740, "name": "INTELSAT 20 (IS-20)", "group": "intelsat", "lat": 0.0009116849869913547, "lon": 17.418837937396887, "alt_km": 35800.03622228984, "timestamp": "2025-12-20T14:38:01.626346+00:00", "meta": {"OBJECT_NAME": "INTELSAT 20 (IS-20)", "OBJECT_ID": "2012-043A", "EPOCH": "2025-12-20T03:17:05.763264", "MEAN_MOTION": 1.00270363, "ECCENTRICITY": 0.00033494, "INCLINATION": 0.0117, "RA_OF_ASC_NODE": 103.5579, "ARG_OF_PERICENTER": 78.8397, "MEAN_ANOMALY": 24.344, "EPHEMERIS_TYPE": 0, "CLASSIFICATION_TYPE": "U", "NORAD_CAT_ID": 38740, "ELEMENT_SET_NO": 999, "REV_AT_EPOCH": 4895, "BSTAR": 0, "MEAN_MOTION_DOT": 0, "MEAN_MOTION_DDOT": 0}, "tle": {"line1": "1 38740U 12043A   25354.13687226  .00000000  00000+0  00000+0 0  9994", "line2": "2 38740   0.0117 103.5579 0003349  78.8397  24.3440  1.00270363 48959"}}, "geometry": {"type": "Point", "coordinates": [17.418837937396887, 0.0009116849869913547]}}, {"type": "Feature", "properties": {"norad_id": 38749, "name": "INTELSAT 21 (IS-21)", "group": "intelsat", "lat": -0.0325266669177032, "lon": -109.06352264402709, "alt_km": 35779.62625674287, "timestamp": "2025-12-20T14:38:01.626357+00:00", "meta": {"OBJECT_NAME": "INTELSAT 21 (IS-21)", "OBJECT_ID": "2012-045A", "EPOCH": "2025-12-20T04:23:44.378592", "MEAN_MOTION": 1.00272561, "ECCENTRICITY": 0.00015024, "INCLINATION": 0.0262, "RA_OF_ASC_NODE": 288.2358, "ARG_OF_PERICENTER": 331.3136, "MEAN_ANOMALY": 197.4058, "EPHEMERIS_TYPE": 0, "CLASSIFICATION_TYPE": "U", "NORAD_CAT_ID": 38749, "ELEMENT_SET_NO": 999, "REV_AT_EPOCH": 4873, "BSTAR": 0, "MEAN_MOTION_DOT": -2.61e-06, "MEAN_MOTION_DDOT": 0}, "tle": {"line1": "1 38749U 12045A   25354.18315253 -.00000261  00000+0  00000+0 0  9998", "line2": "2 38749   0.0262 288.2358 0001502 331.3136 197.4058  1.00272561 48737"}}, "geometry": {"type": "Point", "coordinates": [-109.06352264402709, -0.0325266669177032]}}, {"type": "Feature", "properties": {"norad_id": 38867, "name": "INTELSAT 23 (IS-23)", "group": "intelsat", "lat": -0.020792686121198275, "lon": -104.0352730629689, "alt_km": 35784.63823593161, "timestamp": "2025-12-20T14:38:01.626390+00:00", "meta": {"OBJECT_NAME": "INTELSAT 23 (IS-23)", "OBJECT_ID": "2012-057A", "EPOCH": "2025-12-20T04:25:06.747168", "MEAN_MOTION": 1.00270135, "ECCENTRICITY": 5.904e-05, "INCLINATION": 0.015, "RA_OF_ASC_NODE": 60.0078, "ARG_OF_PERICENTER": 234.4804, "MEAN_ANOMALY": 167.8446, "EPHEMERIS_TYPE": 0, "CLASSIFICATION_TYPE": "U", "NORAD_CAT_ID": 38867, "ELEMENT_SET_NO": 999, "REV_AT_EPOCH": 4816, "BSTAR": 0, "MEAN_MOTION_DOT": -2.61e-06, "MEAN_MOTION_DDOT": 0}, "tle": {"line1": "1 38867U 12057A   25354.18410587 -.00000261  00000+0  00000+0 0  9998", "line2": "2 38867   0.0150  60.0078 0000590 234.4804 167.8446  1.00270135 48164"}}, "geometry": {"type": "Point", "coordinates": [-104.0352730629689, -0.020792686121198275]}}, {"type": "Feature", "properties": {"norad_id": 39360, "name": "FM-6", "group": "intelsat", "lat": 0.006468120646026546, "lon": -167.21950373231226, "alt_km": 35774.727727788486, "timestamp": "2025-12-20T14:38:01.626414+00:00", "meta": {"OBJECT_NAME": "FM-6", "OBJECT_ID": "2013-058A", "EPOCH": "2025-12-19T13:17:47.071392", "MEAN_MOTION": 1.00268723, "ECCENTRICITY": 0.0003035, "INCLINATION": 0.0116, "RA_OF_ASC_NODE": 64.371, "ARG_OF_PERICENTER": 111.3977, "MEAN_ANOMALY": 355.921, "EPHEMERIS_TYPE": 0, "CLASSIFICATION_TYPE": "U", "NORAD_CAT_ID": 39360, "ELEMENT_SET_NO": 999, "REV_AT_EPOCH": 4427, "BSTAR": 0, "MEAN_MOTION_DOT": 8e-08, "MEAN_MOTION_DDOT": 0}, "tle": {"line1": "1 39360U 13058A   25353.55401703  .00000008  00000+0  00000+0 0  9997", "line2": "2 39360   0.0116  64.3710 0003035 111.3977 355.9210  1.00268723 44273"}}, "geometry": {"type": "Point", "coordinates": [-167.21950373231226, 0.006468120646026546]}}, {"type": "Feature", "properties": {"norad_id": 40271, "name": "INTELSAT 30 (IS-30)", "group": "intelsat", "lat": -0.013758723130426646, "lon": -146.09999842115198, "alt_km": 35790.03026329651, "timestamp": "2025-12-20T14:38:01.626428+00:00", "meta": {"OBJECT_NAME": "INTELSAT 30 (IS-30)", "OBJECT_ID": "2014-062A", "EPOCH": "2025-12-19T19:39:22.686048", "MEAN_MOTION": 1.00270758, "ECCENTRICITY": 0.00016331, "INCLINATION": 0.0146, "RA_OF_ASC_NODE": 25.4584, "ARG_OF_PERICENTER": 66.8545, "MEAN_ANOMALY": 196.1418, "EPHEMERIS_TYPE": 0, "CLASSIFICATION_TYPE": "U", "NORAD_CAT_ID": 40271, "ELEMENT_SET_NO": 999, "REV_AT_EPOCH": 499, "BSTAR": 0, "MEAN_MOTION_DOT": -1.26e-06, "MEAN_MOTION_DDOT": 0}, "tle": {"line1": "1 40271U 14062A   25353.81901257 -.00000126  00000+0  00000+0 0  9996", "line2": "2 40271   0.0146  25.4584 0001633  66.8545 196.1418  1.00270758  4994"}}, "geometry": {"type": "Point", "coordinates": [-146.09999842115198, -0.013758723130426646]}}, {"type": "Feature", "properties": {"norad_id": 40333, "name": "DIRECTV 14", "group": "intelsat", "lat": -0.030069572734579077, "lon": -150.2747053705413, "alt_km": 35785.67371713723, "timestamp": "2025-12-20T14:38:01.626441+00:00", "meta": {"OBJECT_NAME": "DIRECTV 14", "OBJECT_ID": "2014-078B", "EPOCH": "2025-12-20T06:03:31.239360", "MEAN_MOTION": 1.00270878, "ECCENTRICITY": 3.999e-05, "INCLINATION": 0.0187, "RA_OF_ASC_NODE": 343.1399, "ARG_OF_PERICENTER": 160.6379, "MEAN_ANOMALY": 296.9753, "EPHEMERIS_TYPE": 0, "CLASSIFICATION_TYPE": "U", "NORAD_CAT_ID": 40333, "ELEMENT_SET_NO": 999, "REV_AT_EPOCH": 4025, "BSTAR": 0, "MEAN_MOTION_DOT": -1.02e-06, "MEAN_MOTION_DDOT": 0}, "tle": {"line1": "1 40333U 14078B   25354.25244490 -.00000102  00000+0  00000+0 0  9994", "line2": "2 40333   0.0187 343.1399 0000399 160.6379 296.9753  1.00270878 40251"}}, "geometry": {"type": "Point", "coordinates": [-150.2747053705413, -0.030069572734579077]}}, {"type": "Feature", "properties": {"norad_id": 40663, "name": "DIRECTV 15", "group": "intelsat", "lat": -0.027817871320511844, "lon": -153.92864911473959, "alt_km": 35786.092242435894, "timestamp": "2025-12-20T14:38:01.626453+00:00", "meta": {"OBJECT_NAME": "DIRECTV 15", "OBJECT_ID": "2015-026A", "EPOCH": "2025-12-19T19:37:07.901184", "MEAN_MOTION": 1.00271591, "ECCENTRICITY": 2.084e-05, "INCLINATION": 0.0174, "RA_OF_ASC_NODE": 339.1795, "ARG_OF_PERICENTER": 140.8553, "MEAN_ANOMALY": 160.0394, "EPHEMERIS_TYPE": 0, "CLASSIFICATION_TYPE": "U", "NORAD_CAT_ID": 40663, "ELEMENT_SET_NO": 999, "REV_AT_EPOCH": 3866, "BSTAR": 0, "MEAN_MOTION_DOT": -7.8e-07, "MEAN_MOTION_DDOT": 0}, "tle": {"line1": "1 40663U 15026A   25353.81745256 -.00000078  00000+0  00000+0 0  9993", "line2": "2 40663   0.0174 339.1795 0000208 140.8553 160.0394  1.00271591 38668"}}, "geometry": {"type": "Point", "coordinates": [-153.92864911473959, -0.027817871320511844]}}]}